CAPELLA-11 (ACADIA-1)   
1 57693U 23126A   26196.92799269  .00001937  00000+0  25168-3 0  9995
2 57693  53.0071  60.1070 0002002 130.8516 229.2637 14.85024876156390
CAPELLA-14 (ACADIA-4)   
1 59444U 24066C   26196.76539634  .00005671  00000+0  37998-3 0  9998
2 59444  45.6015 104.8685 0001999 156.3927 203.7050 15.07872748116804
CAPELLA-13 (ACADIA-3)   
1 60419U 24142A   26196.65172321  .00002264  00000+0  27216-3 0  9998
2 60419  53.0038 293.3201 0001230  70.7898 289.3216 14.87647071104647
CAPELLA-15 (ACADIA-5)   
1 60544U 24149CE  26196.21437038  .00002389  00000+0  23867-3 0  9991
2 60544  97.6759 268.4148 0003244 341.5394  18.5707 14.92405560104031
CAPELLA-17 (ACADIA-7)   
1 64583U 25135BH  26196.91747354  .00003219  00000+0  32606-3 0  9990
2 64583  97.7710 310.1160 0004121 246.2963 113.7823 14.91624419 58134
CAPELLA-16 (ACADIA-6)   
1 65318U 25188D   26196.75695138  .00003669  00000+0  34892-3 0  9997
2 65318  97.7379 271.4811 0005774 133.3427 226.8275 14.94053733 48189
CAPELLA-19 (ACADIA-9)   
1 67384U 26004X   26196.93898214  .00002730  00000+0  31350-3 0  9994
2 67384  97.8004 194.7931 0001518  94.3413 265.7977 14.86643095 27548
CAPELLA-18 (ACADIA-8)   
1 67385U 26004Y   26196.94901420  .00002629  00000+0  30209-3 0  9999
2 67385  97.8013 194.9568 0001504  95.6131 264.5257 14.86656890 27559
CAPELLA-20 (ACADIA-10)  
1 68485U 26067BX  26196.86932987  .00002721  00000+0  27607-3 0  9994
2 68485  97.7588 154.7086 0001130 148.0816 212.0471 14.91687062 16009
