{"fetched_at":"2026-07-16T06:42:48.643Z","source":"https://celestrak.org/NORAD/elements/gp.php?NAME=CAPELLA&FORMAT=JSON","constellation":"capella","records":[{"OBJECT_NAME":"CAPELLA-11 (ACADIA-1)","OBJECT_ID":"2023-126A","EPOCH":"2026-07-15T22:16:18.568416","CLASSIFICATION_TYPE":"U","MEAN_MOTION":14.85024876,"ECCENTRICITY":0.00020028,"INCLINATION":53.0071,"RA_OF_ASC_NODE":60.107,"ARG_OF_PERICENTER":130.8516,"MEAN_ANOMALY":229.2637,"EPHEMERIS_TYPE":0,"NORAD_CAT_ID":57693,"ELEMENT_SET_NO":999,"REV_AT_EPOCH":15639,"BSTAR":0.00025167707,"MEAN_MOTION_DOT":0.00001937,"MEAN_MOTION_DDOT":0},{"OBJECT_NAME":"CAPELLA-14 (ACADIA-4)","OBJECT_ID":"2024-066C","EPOCH":"2026-07-15T18:22:10.243776","CLASSIFICATION_TYPE":"U","MEAN_MOTION":15.07872748,"ECCENTRICITY":0.00019997,"INCLINATION":45.6015,"RA_OF_ASC_NODE":104.8685,"ARG_OF_PERICENTER":156.3927,"MEAN_ANOMALY":203.705,"EPHEMERIS_TYPE":0,"NORAD_CAT_ID":59444,"ELEMENT_SET_NO":999,"REV_AT_EPOCH":11680,"BSTAR":0.00037997549,"MEAN_MOTION_DOT":0.00005671,"MEAN_MOTION_DDOT":0},{"OBJECT_NAME":"CAPELLA-13 (ACADIA-3)","OBJECT_ID":"2024-142A","EPOCH":"2026-07-15T15:38:28.885344","CLASSIFICATION_TYPE":"U","MEAN_MOTION":14.87647071,"ECCENTRICITY":0.00012305,"INCLINATION":53.0038,"RA_OF_ASC_NODE":293.3201,"ARG_OF_PERICENTER":70.7898,"MEAN_ANOMALY":289.3216,"EPHEMERIS_TYPE":0,"NORAD_CAT_ID":60419,"ELEMENT_SET_NO":999,"REV_AT_EPOCH":10464,"BSTAR":0.00027215758,"MEAN_MOTION_DOT":0.00002264,"MEAN_MOTION_DDOT":0},{"OBJECT_NAME":"CAPELLA-15 (ACADIA-5)","OBJECT_ID":"2024-149CE","EPOCH":"2026-07-15T05:08:41.600832","CLASSIFICATION_TYPE":"U","MEAN_MOTION":14.9240556,"ECCENTRICITY":0.0003244,"INCLINATION":97.6759,"RA_OF_ASC_NODE":268.4148,"ARG_OF_PERICENTER":341.5394,"MEAN_ANOMALY":18.5707,"EPHEMERIS_TYPE":0,"NORAD_CAT_ID":60544,"ELEMENT_SET_NO":999,"REV_AT_EPOCH":10403,"BSTAR":0.00023867,"MEAN_MOTION_DOT":0.00002389,"MEAN_MOTION_DDOT":0},{"OBJECT_NAME":"CAPELLA-17 (ACADIA-7)","OBJECT_ID":"2025-135BH","EPOCH":"2026-07-15T22:01:09.713856","CLASSIFICATION_TYPE":"U","MEAN_MOTION":14.91624419,"ECCENTRICITY":0.00041219,"INCLINATION":97.771,"RA_OF_ASC_NODE":310.116,"ARG_OF_PERICENTER":246.2963,"MEAN_ANOMALY":113.7823,"EPHEMERIS_TYPE":0,"NORAD_CAT_ID":64583,"ELEMENT_SET_NO":999,"REV_AT_EPOCH":5813,"BSTAR":0.00032605955,"MEAN_MOTION_DOT":0.00003219,"MEAN_MOTION_DDOT":0},{"OBJECT_NAME":"CAPELLA-16 (ACADIA-6)","OBJECT_ID":"2025-188D","EPOCH":"2026-07-15T18:10:00.599232","CLASSIFICATION_TYPE":"U","MEAN_MOTION":14.94053733,"ECCENTRICITY":0.00057745,"INCLINATION":97.7379,"RA_OF_ASC_NODE":271.4811,"ARG_OF_PERICENTER":133.3427,"MEAN_ANOMALY":226.8275,"EPHEMERIS_TYPE":0,"NORAD_CAT_ID":65318,"ELEMENT_SET_NO":999,"REV_AT_EPOCH":4818,"BSTAR":0.00034891642,"MEAN_MOTION_DOT":0.00003669,"MEAN_MOTION_DDOT":0},{"OBJECT_NAME":"CAPELLA-19 (ACADIA-9)","OBJECT_ID":"2026-004X","EPOCH":"2026-07-15T22:32:08.056896","CLASSIFICATION_TYPE":"U","MEAN_MOTION":14.86643095,"ECCENTRICITY":0.00015189,"INCLINATION":97.8004,"RA_OF_ASC_NODE":194.7931,"ARG_OF_PERICENTER":94.3413,"MEAN_ANOMALY":265.7977,"EPHEMERIS_TYPE":0,"NORAD_CAT_ID":67384,"ELEMENT_SET_NO":999,"REV_AT_EPOCH":2754,"BSTAR":0.0003135028,"MEAN_MOTION_DOT":0.0000273,"MEAN_MOTION_DDOT":0},{"OBJECT_NAME":"CAPELLA-18 (ACADIA-8)","OBJECT_ID":"2026-004Y","EPOCH":"2026-07-15T22:46:34.826880","CLASSIFICATION_TYPE":"U","MEAN_MOTION":14.8665689,"ECCENTRICITY":0.00015048,"INCLINATION":97.8013,"RA_OF_ASC_NODE":194.9568,"ARG_OF_PERICENTER":95.6131,"MEAN_ANOMALY":264.5257,"EPHEMERIS_TYPE":0,"NORAD_CAT_ID":67385,"ELEMENT_SET_NO":999,"REV_AT_EPOCH":2755,"BSTAR":0.00030208863,"MEAN_MOTION_DOT":0.00002629,"MEAN_MOTION_DDOT":0},{"OBJECT_NAME":"CAPELLA-20 (ACADIA-10)","OBJECT_ID":"2026-067BX","EPOCH":"2026-07-15T20:51:50.100768","CLASSIFICATION_TYPE":"U","MEAN_MOTION":14.91687062,"ECCENTRICITY":0.00011304,"INCLINATION":97.7588,"RA_OF_ASC_NODE":154.7086,"ARG_OF_PERICENTER":148.0816,"MEAN_ANOMALY":212.0471,"EPHEMERIS_TYPE":0,"NORAD_CAT_ID":68485,"ELEMENT_SET_NO":999,"REV_AT_EPOCH":1600,"BSTAR":0.00027607148,"MEAN_MOTION_DOT":0.00002721,"MEAN_MOTION_DDOT":0}]}
